56P/Slaughter-Burnham,e,8.1513,345.9726,44.1194,5.076292,0.0861756,0.50621423,81.3473,02/17.0/2019,2000,g  8.5,6.0
# From MPC 98565
57P/du Toit-Neujmin-Delporte,e,2.8489,188.7984,115.1455,3.448923,0.1538788,0.50027659,210.1803,02/17.0/2019,2000,g 12.5,6.0
# From MPC 65938
58P/Jackson-Neujmin,e,13.1057,159.2138,200.4188,4.080855,0.1195577,0.66318038,304.6515,02/17.0/2019,2000,g 15.5,6.0
# From MPC111774
59P/Kearns-Kwee,e,9.3400,312.8262,127.6986,4.493765,0.1034638,0.47510836,15.8554,02/17.0/2019,2000,g  7.0,6.0
# From MPC 94675
60P/Tsuchinshan,e,3.6065,267.5839,216.5538,3.509990,0.1498806,0.53770359,10.1570,02/17.0/2019,2000,g 11.5,6.0
# From MPC 95213
61P/Shajn-Schaldach,e,6.0001,163.0032,221.9721,3.683374,0.1394233,0.42402942,172.2803,02/17.0/2019,2000,g  6.0,10.0
# From MPC109147
62P/Tsuchinshan,e,9.7273,90.1884,30.4368,3.443789,0.1542230,0.59879958,70.5276,02/17.0/2019,2000,g  8.0,10.0
# From MPC 84320
63P/Wild,e,19.7608,358.0026,169.1876,5.601970,0.0743349,0.64984637,159.0255,02/17.0/2019,2000,g 10.5,6.0
# From MPC111774
64P/Swift-Gehrels,e,8.9489,299.9959,97.1515,4.457935,0.1047137,0.68748398,11.0061,02/17.0/2019,2000,g  9.5,12.0
# From MPC104795
65P/Gunn,e,9.1851,62.0191,213.6295,3.881220,0.1288996,0.25004718,62.8778,02/17.0/2019,2000,g  5.0,6.0
# From MPC109147
66P/du Toit,e,18.6737,21.8962,257.2243,6.055134,0.0661483,0.78691814,18.1131,02/17.0/2019,2000,g 12.0,3.6
# From MPC 89011
67P/Churyumov-Gerasimenko,e,4.6071,42.8577,17.0421,3.399336,0.1572581,0.67230156,205.9728,02/17.0/2019,2000,g 11.0,4.0
# From MPC 75716
68P/Klemola,e,11.1123,175.1258,153.0328,4.953240,0.0894067,0.63795583,336.3053,02/17.0/2019,2000,g 10.0,4.0
# From MPC102100
69P/Taylor,e,22.0321,104.8304,343.5740,3.891778,0.1283755,0.41327885,356.2409,02/17.0/2019,2000,g  9.5,12.0
# From MPC 92276
70P/Kojima,e,6.5985,119.2688,1.9028,3.674252,0.1399428,0.45317449,221.3613,02/17.0/2019,2000,g 11.0,6.0
# From MPC107051
71P/Clark,e,9.4448,59.4450,208.9639,3.137450,0.1773531,0.49432294,105.8228,02/17.0/2019,2000,g  9.8,6.0
# From MPC 89011
72P/Denning-Fujikawa,e,10.9177,26.6983,346.6686,4.312376,0.1100599,0.81756315,185.9411,02/17.0/2019,2000,g 17.5,10.0
# From MPC106348
73P/Schwassmann-Wachmann,e,11.2383,69.6577,199.4090,3.092917,0.1811973,0.68574206,127.2001,02/17.0/2019,2000,g 11.5,6.0
# From MPC106348
73P-BT/Schwassmann-Wachmann,e,11.2404,69.6603,199.3905,3.094475,0.1810605,0.68594563,127.1048,02/17.0/2019,2000,g 11.5,6.0
# From MPC102956
74P/Smirnova-Chernykh,e,6.6545,77.0466,87.5344,4.164579,0.1159705,0.15051759,44.5022,02/17.0/2019,2000,g  5.0,6.0
# From MPC102100
76P/West-Kohoutek-Ikemura,e,30.4571,84.1256,0.0388,3.474071,0.1522110,0.53809964,321.7690,02/17.0/2019,2000,g  8.0,12.0
# From MPC 10028
77P/Longmore,e,24.3393,14.8091,196.8437,3.618577,0.1431850,0.35309436,144.5117,02/17.0/2019,2000,g  7.0,8.0
# From MPC102101
78P/Gehrels,e,6.2488,210.5481,192.6858,3.740029,0.1362673,0.46154948,353.9086,02/17.0/2019,2000,g  5.5,8.0
# From MPC 94675
79P/du Toit-Hartley,e,3.1479,280.5244,281.8413,2.943611,0.1951567,0.61923039,30.5738,02/17.0/2019,2000,g 16.0,4.0
# From MPC 89313
80P/Peters-Hartley,e,29.9489,259.8218,339.2299,4.024156,0.1220933,0.59943575,190.3327,02/17.0/2019,2000,g  9.0,8.0
# From MPC105241
81P/Wild,e,3.2379,136.1195,41.7221,3.449004,0.1538734,0.53775028,144.9551,02/17.0/2019,2000,g  7.0,6.0
# From MPC 75717
82P/Gehrels,e,1.1283,239.3167,227.1364,4.140202,0.1169962,0.12222409,27.3502,02/17.0/2019,2000,g  5.0,8.0
# From MPC105241
84P/Giclas,e,7.5407,108.2020,281.3135,3.557237,0.1469044,0.51599715,290.6121,02/17.0/2019,2000,g  9.5,8.0
# From MPC 79347
86P/Wild,e,15.4776,72.3813,179.2516,3.605183,0.1439836,0.37266224,203.6357,02/17.0/2019,2000,g 11.0,6.0
# From MPC105241
87P/Bus,e,2.6021,181.8719,24.8747,3.439531,0.1545095,0.38942243,290.9184,02/17.0/2019,2000,g  7.2,10.0
# From MPC105241
88P/Howell,e,4.3835,56.6949,235.8750,3.106109,0.1800442,0.56402913,254.2012,02/17.0/2019,2000,g 11.0,6.0
# From MPC 10028
89P/Russell,e,12.0750,41.4402,250.1958,3.753569,0.1355306,0.40853247,107.6099,02/17.0/2019,2000,g 11.5,6.0
# From MPC107051
90P/Gehrels,e,9.6356,13.2355,29.1989,6.061189,0.0660492,0.50939149,40.1630,02/17.0/2019,2000,g  8.5,6.0
# From MPC105241
91P/Russell,e,14.0917,247.8334,354.6777,3.892793,0.1283252,0.33065347,279.0287,02/17.0/2019,2000,g  7.5,6.0
# From MPC 88331
92P/Sanguin,e,19.4561,181.4251,163.6971,5.347978,0.0796929,0.65969734,115.4470,02/17.0/2019,2000,g 12.0,6.0
# From NK 2707
93P/Lovas,e,12.1997,339.6162,74.9283,4.387201,0.1072563,0.61209650,76.9902,02/17.0/2019,2000,g  9.5,6.0
# From MPC 84320
94P/Russell,e,6.1879,70.8621,92.5757,3.507250,0.1500562,0.36476485,126.5043,02/17.0/2019,2000,g  9.0,6.0
# From MPC 75717
95P/Chiron,e,6.9477,209.2103,339.8059,13.66601,0.0195093,0.38074404,163.7279,02/17.0/2019,2000,g  6.3,2.0
# From MPC106348
96P/Machholz,e,58.2903,94.2649,14.7587,3.033794,0.1865198,0.95932444,88.9750,02/17.0/2019,2000,g 13.0,4.8
# From MPC 77020
97P/Metcalf-Brewington,e,17.8432,184.9777,228.3477,4.796620,0.0938212,0.45906644,257.2884,02/17.0/2019,2000,g  5.5,6.0
# From MPC 83523
98P/Takamizawa,e,10.5594,114.7062,157.8600,3.801228,0.1329898,0.56207484,268.5156,02/17.0/2019,2000,g  9.0,8.0
# From MPC 75718
99P/Kowal,e,4.3379,28.1572,174.7502,6.119278,0.0651109,0.23093648,285.1940,02/17.0/2019,2000,g  4.5,6.0
# From MPC 84321
100P/Hartley,e,25.5856,37.7239,181.9812,3.430483,0.1551212,0.41313995,163.0020,02/17.0/2019,2000,g  9.0,8.0
# From MPC105241
101P/Chernykh,e,5.0528,116.1864,277.7351,5.795076,0.0706505,0.59526394,336.6427,02/17.0/2019,2000,g 10.0,4.8
# From MPC 86232
102P/Shoemaker,e,25.8783,339.4995,20.6135,3.810444,0.1325076,0.45787620,266.4926,02/17.0/2019,2000,g  6.5,8.0
# From MPC110085
103P/Hartley,e,13.5918,219.7269,181.3286,3.477506,0.1519855,0.69293184,101.4968,02/17.0/2019,2000,g  8.5,8.0
# From MPC 10028
104P/Kowal,e,10.1876,234.9293,200.5519,3.211320,0.1712690,0.66545950,177.3418,02/17.0/2019,2000,g 16.0,4.0
# From MPC109147
105P/Singer Brewster,e,9.1748,192.4202,46.4524,3.466647,0.1527002,0.41027276,29.1305,02/17.0/2019,2000,g 11.5,6.0
# From MPC 92276
106P/Schuster,e,19.9742,49.5170,353.6625,3.743410,0.1360827,0.59954824,235.9715,02/17.0/2019,2000,g 14.0,4.8
# From MPC 94676
107P/Wilson-Harrington,e,2.7982,266.8174,95.3957,2.626781,0.2315092,0.63082988,62.3856,02/17.0/2019,2000,g 16.0,2.0
# From MPC 89313
108P/Ciffreo,e,12.0463,51.6760,354.1699,3.702588,0.1383394,0.56965264,231.5004,02/17.0/2019,2000,g  8.0,12.0
# From ICA 105, 420
109P/Swift-Tuttle,e,113.6497,139.3077,152.9044,26.08404,0.0073985,0.96353506,70.8511,02/17.0/2019,2000,g  4.5,6.0
# From MPC 91618
110P/Hartley,e,11.7044,287.5282,167.3738,3.602894,0.1441209,0.31691832,219.4765,02/17.0/2019,2000,g  1.0,12.0
# From MPC 75718
111P/Helin-Roman-Crockett,e,4.2275,89.7631,1.5152,4.141479,0.1169421,0.10522077,260.2127,02/17.0/2019,2000,g  5.0,8.0
# From MPC105241
112P/Urata-Niijima,e,24.1911,31.8600,21.4661,3.526156,0.1488510,0.58958138,307.0129,02/17.0/2019,2000,g 14.0,6.0
# From MPC 92984
113P/Spitaler,e,4.1032,335.3182,88.6168,3.589502,0.1449281,0.47415448,193.5245,02/17.0/2019,2000,g 13.5,4.0
# From MPC105241
114P/Wiseman-Skiff,e,18.2726,271.0607,172.8315,3.545824,0.1476143,0.55460217,311.1199,02/17.0/2019,2000,g 11.5,6.0
# From MPC105241
115P/Maury,e,11.6750,176.0394,121.0460,4.271846,0.1116299,0.51849630,300.9516,02/17.0/2019,2000,g 10.5,6.0
# From MPC106348
116P/Wild,e,3.6063,21.0016,173.4076,3.486597,0.1513915,0.37158937,171.4769,02/17.0/2019,2000,g  2.5,10.0
# From MPC 95735
117P/Helin-Roman-Alu,e,8.7015,58.8746,222.5421,4.090034,0.1191554,0.25536469,212.8021,02/17.0/2019,2000,g  2.5,8.0
# From MPC 95735
118P/Shoemaker-Levy,e,8.5278,149.7347,304.1051,3.453610,0.1535657,0.43737919,148.5968,02/17.0/2019,2000,g 12.0,4.0
# From MPC 84628
119P/Parker-Hartley,e,5.8178,240.5483,181.0291,4.036757,0.1215221,0.37437336,205.4512,02/17.0/2019,2000,g  3.5,8.0
# From MPC 80901
120P/Mueller,e,8.4793,0.0521,33.9397,3.999391,0.1232291,0.37538442,260.6776,02/17.0/2019,2000,g 12.0,4.0
# From MPC 10028
121P/Shoemaker-Holt,e,20.1641,94.1421,11.2563,4.590009,0.1002268,0.18374213,200.2441,02/17.0/2019,2000,g  6.5,8.0
# From MPC 75718
122P/de Vico,e,84.5547,79.4994,13.0390,17.64622,0.0132962,0.96239709,113.5721,02/17.0/2019,2000,g  7.5,5.2
# From MPC102101
123P/West-Hartley,e,15.3596,46.4994,103.0104,3.857491,0.1300908,0.44863656,1.5463,02/17.0/2019,2000,g  4.0,10.0
# From MPC105242
124P/Mrkos,e,31.5136,0.3852,183.8372,3.318768,0.1630192,0.50362699,289.1128,02/17.0/2019,2000,g 13.5,2.8
# From MPC 94676
125P/Spacewatch,e,9.9893,153.1741,87.1698,3.124181,0.1784842,0.51343439,30.8900,02/17.0/2019,2000,g 13.0,6.0
# From MPC 66205
126P/IRAS,e,45.8040,357.8246,356.4983,5.643081,0.0735241,0.69545678,242.3240,02/17.0/2019,2000,g  6.0,8.0
# From MPC 84321
127P/Holt-Olmstead,e,14.3007,13.6512,6.6281,3.448714,0.1538928,0.35989662,164.2242,02/17.0/2019,2000,g 11.0,6.0
# From MPC 75719
128P/Shoemaker-Holt,e,4.3648,214.2951,210.5006,4.496826,0.1033582,0.32044480,79.3534,02/17.0/2019,2000,g  8.5,4.0
# From MPC 10028
129P/Shoemaker-Levy,e,3.4441,184.8910,308.6441,4.278120,0.1113845,0.08414329,205.0434,02/17.0/2019,2000,g 11.0,4.0
# From MPC 78188
130P/McNaught-Hughes,e,6.0653,70.2557,245.9251,3.383327,0.1583755,0.46100378,61.9534,02/17.0/2019,2000,g 10.0,6.0
# From MPC102101
131P/Mueller,e,7.3538,214.1921,179.0755,3.681392,0.1395359,0.34331823,3.3181,02/17.0/2019,2000,g 11.0,4.0
# From MPC 92985
132P/Helin-Roman-Alu,e,5.3942,174.5160,216.3623,3.869442,0.1294886,0.56769331,230.5620,02/17.0/2019,2000,g 11.0,6.0
# From MPC 94676
133P/Elst-Pizarro,e,1.3893,160.1351,131.4999,3.162037,0.1752886,0.15724224,26.1559,02/17.0/2019,2000,g 15.4,2.0
# From MPC 89012
134P/Kowal-Vavrova,e,4.3493,202.0832,18.8032,6.252274,0.0630445,0.58775353,109.1844,02/17.0/2019,2000,g 11.5,4.0
# From MPC 92985
135P/Shoemaker-Levy,e,6.0629,213.0742,22.1512,3.804979,0.1327932,0.29577588,208.0460,02/17.0/2019,2000,g  7.0,8.0
# From MPC101100
